{
  "norad_id": 52564,
  "name": "STARLINK-3959",
  "history": [
    {
      "epoch": "2026-04-15T20:30:46.797120Z",
      "apogee_km": 540.7248245461151,
      "perigee_km": 538.7767473455924,
      "latitude_deg": 4.729773842332481e-05,
      "longitude_deg": 175.58575280778223,
      "height_km": 540.6177882187161,
      "semi_major_axis_km": 6917.8877859458535,
      "eccentricity": 0.0001408,
      "inclination_deg": 53.2186,
      "raan_deg": 327.2915,
      "arg_perigee_deg": 88.3081,
      "mean_anomaly_deg": 271.8073,
      "mean_motion_rev_day": 15.0883758
    },
    {
      "epoch": "2026-04-16T07:38:28.756896Z",
      "apogee_km": 540.7290250891092,
      "perigee_km": 538.77126302734,
      "latitude_deg": -2.223095656800303e-05,
      "longitude_deg": 6.1225456551166975,
      "height_km": 540.6594110204952,
      "semi_major_axis_km": 6917.887144058224,
      "eccentricity": 0.0001415,
      "inclination_deg": 53.2182,
      "raan_deg": 325.2102,
      "arg_perigee_deg": 90.7931,
      "mean_anomaly_deg": 269.3223,
      "mean_motion_rev_day": 15.0883779
    },
    {
      "epoch": "2026-04-17T20:12:21.330720Z",
      "apogee_km": 540.6468154557388,
      "perigee_km": 538.8712682576361,
      "latitude_deg": 7.25236126234495e-05,
      "longitude_deg": 169.31180584766585,
      "height_km": 540.6880036391348,
      "semi_major_axis_km": 6917.896041856688,
      "eccentricity": 0.00012833,
      "inclination_deg": 53.2181,
      "raan_deg": 318.3701,
      "arg_perigee_deg": 92.1359,
      "mean_anomaly_deg": 267.9781,
      "mean_motion_rev_day": 15.08834879
    },
    {
      "epoch": "2026-04-18T20:03:08.552160Z",
      "apogee_km": 540.2558084279071,
      "perigee_km": 539.2527141950177,
      "latitude_deg": -5.0536101939780895e-06,
      "longitude_deg": 166.17305342638258,
      "height_km": 540.7357938712217,
      "semi_major_axis_km": 6917.891261311463,
      "eccentricity": 7.25e-05,
      "inclination_deg": 53.2195,
      "raan_deg": 313.9075,
      "arg_perigee_deg": 99.7271,
      "mean_anomaly_deg": 260.3803,
      "mean_motion_rev_day": 15.08836443
    },
    {
      "epoch": "2026-04-19T19:53:55.143744Z",
      "apogee_km": 540.700727941382,
      "perigee_km": 538.787242060931,
      "latitude_deg": -3.337753152098323e-05,
      "longitude_deg": 163.03906798891774,
      "height_km": 540.7996478674746,
      "semi_major_axis_km": 6917.880985001157,
      "eccentricity": 0.0001383,
      "inclination_deg": 53.2169,
      "raan_deg": 309.447,
      "arg_perigee_deg": 99.6278,
      "mean_anomaly_deg": 260.487,
      "mean_motion_rev_day": 15.08839805
    },
    {
      "epoch": "2026-04-19T23:04:41.472768Z",
      "apogee_km": 540.7760539442843,
      "perigee_km": 538.7136949998658,
      "latitude_deg": 3.443410164507798e-05,
      "longitude_deg": 114.623101745137,
      "height_km": 540.7097534145569,
      "semi_major_axis_km": 6917.881874472075,
      "eccentricity": 0.00014906,
      "inclination_deg": 53.2174,
      "raan_deg": 308.8546,
      "arg_perigee_deg": 93.8566,
      "mean_anomaly_deg": 266.2597,
      "mean_motion_rev_day": 15.08839514
    },
    {
      "epoch": "2026-04-21T19:35:29.412096Z",
      "apogee_km": 540.7675200874619,
      "perigee_km": 538.7142939246623,
      "latitude_deg": 2.2940257404717327e-06,
      "longitude_deg": 156.76902930201425,
      "height_km": 540.6882355795499,
      "semi_major_axis_km": 6917.877907006062,
      "eccentricity": 0.0001484,
      "inclination_deg": 53.2166,
      "raan_deg": 300.5284,
      "arg_perigee_deg": 92.8966,
      "mean_anomaly_deg": 267.2196,
      "mean_motion_rev_day": 15.08840812
    },
    {
      "epoch": "2026-04-22T19:26:16.873728Z",
      "apogee_km": 540.7067391289302,
      "perigee_km": 538.8057020719098,
      "latitude_deg": -3.200688324846116e-05,
      "longitude_deg": 153.63150289068923,
      "height_km": 540.6079592704008,
      "semi_major_axis_km": 6917.893220600419,
      "eccentricity": 0.0001374,
      "inclination_deg": 53.2173,
      "raan_deg": 296.068,
      "arg_perigee_deg": 87.3502,
      "mean_anomaly_deg": 272.7647,
      "mean_motion_rev_day": 15.08835802
    },
    {
      "epoch": "2026-04-22T22:37:03.118944Z",
      "apogee_km": 540.736490023487,
      "perigee_km": 538.774575701168,
      "latitude_deg": -3.638623073889883e-05,
      "longitude_deg": 105.2129329723714,
      "height_km": 540.6069951839411,
      "semi_major_axis_km": 6917.892532862327,
      "eccentricity": 0.0001418,
      "inclination_deg": 53.218,
      "raan_deg": 295.4727,
      "arg_perigee_deg": 87.4155,
      "mean_anomaly_deg": 272.6999,
      "mean_motion_rev_day": 15.08836027
    },
    {
      "epoch": "2026-04-24T19:07:50.760192Z",
      "apogee_km": 540.698009701342,
      "perigee_km": 538.7900581121912,
      "latitude_deg": -1.009708779836938e-05,
      "longitude_deg": 147.36005113422442,
      "height_km": 540.6217010883958,
      "semi_major_axis_km": 6917.881033906767,
      "eccentricity": 0.0001379,
      "inclination_deg": 53.2178,
      "raan_deg": 287.1464,
      "arg_perigee_deg": 88.9154,
      "mean_anomaly_deg": 271.1996,
      "mean_motion_rev_day": 15.08839789
    },
    {
      "epoch": "2026-04-25T20:34:00.823008Z",
      "apogee_km": 540.684867039311,
      "perigee_km": 538.7824526078603,
      "latitude_deg": -5.474327669763863e-05,
      "longitude_deg": 120.01566462566367,
      "height_km": 540.61633237673,
      "semi_major_axis_km": 6917.870659823586,
      "eccentricity": 0.0001375,
      "inclination_deg": 53.2175,
      "raan_deg": 282.3886,
      "arg_perigee_deg": 89.2149,
      "mean_anomaly_deg": 270.9,
      "mean_motion_rev_day": 15.08843183
    },
    {
      "epoch": "2026-04-26T20:24:47.753280Z",
      "apogee_km": 540.6840656441182,
      "perigee_km": 538.7786079894258,
      "latitude_deg": 5.818661577469999e-06,
      "longitude_deg": 116.88043172165891,
      "height_km": 540.6124836730478,
      "semi_major_axis_km": 6917.868336816772,
      "eccentricity": 0.00013772,
      "inclination_deg": 53.2175,
      "raan_deg": 277.9282,
      "arg_perigee_deg": 89.1251,
      "mean_anomaly_deg": 270.9899,
      "mean_motion_rev_day": 15.08843943
    },
    {
      "epoch": "2026-04-27T20:15:35.139744Z",
      "apogee_km": 540.7191445744393,
      "perigee_km": 538.7710689731703,
      "latitude_deg": 7.165036314151368e-05,
      "longitude_deg": 113.74249704373439,
      "height_km": 540.7082911182955,
      "semi_major_axis_km": 6917.8821067738045,
      "eccentricity": 0.0001408,
      "inclination_deg": 53.2178,
      "raan_deg": 273.467,
      "arg_perigee_deg": 93.9743,
      "mean_anomaly_deg": 266.1411,
      "mean_motion_rev_day": 15.08839438
    },
    {
      "epoch": "2026-04-28T20:06:22.461408Z",
      "apogee_km": 540.6606187366724,
      "perigee_km": 538.8425976104454,
      "latitude_deg": 2.5554943176346082e-05,
      "longitude_deg": 110.60604983137013,
      "height_km": 540.6335842323732,
      "semi_major_axis_km": 6917.888608173559,
      "eccentricity": 0.0001314,
      "inclination_deg": 53.2174,
      "raan_deg": 269.0071,
      "arg_perigee_deg": 89.1308,
      "mean_anomaly_deg": 270.9835,
      "mean_motion_rev_day": 15.08837311
    },
    {
      "epoch": "2026-04-29T15:10:59.850624Z",
      "apogee_km": 540.6074218171734,
      "perigee_km": 538.8765684925866,
      "latitude_deg": -3.563139679173791e-05,
      "longitude_deg": -179.90135049511957,
      "height_km": 540.6178418229225,
      "semi_major_axis_km": 6917.87899515488,
      "eccentricity": 0.0001251,
      "inclination_deg": 53.2174,
      "raan_deg": 265.439,
      "arg_perigee_deg": 88.6747,
      "mean_anomaly_deg": 271.4388,
      "mean_motion_rev_day": 15.08840456
    },
    {
      "epoch": "2026-04-30T15:01:47.426304Z",
      "apogee_km": 540.6465262851152,
      "perigee_km": 538.870010780156,
      "latitude_deg": 7.201739463561452e-06,
      "longitude_deg": 176.96060619278924,
      "height_km": 540.5937440828875,
      "semi_major_axis_km": 6917.895268532636,
      "eccentricity": 0.0001284,
      "inclination_deg": 53.2175,
      "raan_deg": 260.9785,
      "arg_perigee_deg": 86.1043,
      "mean_anomaly_deg": 274.0096,
      "mean_motion_rev_day": 15.08835132
    },
    {
      "epoch": "2026-05-02T08:21:49.269024Z",
      "apogee_km": 540.736869303958,
      "perigee_km": 538.7887887121078,
      "latitude_deg": -1.6300417120942207e-05,
      "longitude_deg": -92.47581228100712,
      "height_km": 540.6030211053516,
      "semi_major_axis_km": 6917.899829008033,
      "eccentricity": 0.0001408,
      "inclination_deg": 53.2178,
      "raan_deg": 253.2473,
      "arg_perigee_deg": 86.7339,
      "mean_anomaly_deg": 273.3814,
      "mean_motion_rev_day": 15.0883364
    },
    {
      "epoch": "2026-05-03T17:44:54.349152Z",
      "apogee_km": 540.5683744074668,
      "perigee_km": 538.8804162270098,
      "latitude_deg": 4.954185747216654e-06,
      "longitude_deg": 119.13646990808772,
      "height_km": 540.6254275448636,
      "semi_major_axis_km": 6917.861395317238,
      "eccentricity": 0.000122,
      "inclination_deg": 53.2177,
      "raan_deg": 247.0018,
      "arg_perigee_deg": 90.3462,
      "mean_anomaly_deg": 269.767,
      "mean_motion_rev_day": 15.08846214
    },
    {
      "epoch": "2026-05-04T17:35:41.798688Z",
      "apogee_km": 540.6599448234865,
      "perigee_km": 538.8253231445542,
      "latitude_deg": 2.879101459362077e-06,
      "longitude_deg": 115.99941704121584,
      "height_km": 540.6756347778847,
      "semi_major_axis_km": 6917.87963398402,
      "eccentricity": 0.0001326,
      "inclination_deg": 53.2174,
      "raan_deg": 242.5418,
      "arg_perigee_deg": 92.3271,
      "mean_anomaly_deg": 267.7873,
      "mean_motion_rev_day": 15.08840247
    }
  ]
}